COMMENT,ORIGINATOR,NORAD_CAT_ID,OBJECT_NAME,OBJECT_TYPE,CLASSIFICATION_TYPE,INTLDES,EPOCH,EPOCH_MICROSECONDS,MEAN_MOTION,ECCENTRICITY,INCLINATION,RA_OF_ASC_NODE,ARG_OF_PERICENTER,MEAN_ANOMALY,EPHEMERIS_TYPE,ELEMENT_SET_NO,REV_AT_EPOCH,BSTAR,MEAN_MOTION_DOT,MEAN_MOTION_DDOT,FILE,TLE_LINE0,TLE_LINE1,TLE_LINE2,OBJECT_ID,OBJECT_NUMBER,SEMIMAJOR_AXIS,PERIOD,APOGEE,PERIGEE,DECAYED
"GENERATED VIA SPACETRACK.ORG API","18 SPCS","55087","SPACEBEE-167","PAYLOAD","U","23001CG","2023-04-14 05:49:18","754752","15.17253141","0.0014837","97.4841","164.9583","220.1425","139.8714","0","999","1539","0.001008","0.00020089","0","3887333","0 SPACEBEE-167","1 55087U 23001CG  23104.24257818  .00020089  00000-0  10080-2 0  9998","2 55087  97.4841 164.9583 0014837 220.1425 139.8714 15.17253141 15396","2023-001CG","55087","6892.284","94.908","524.375","503.923","0"
"GENERATED VIA SPACETRACK.ORG API","18 SPCS","55087","SPACEBEE-167","PAYLOAD","U","23001CG","2023-04-14 15:19:07","398912","15.17268541","0.0014879","97.4842","165.3492","218.6916","141.3253","0","999","1545","0.0009923","0.00019783","0","3887381","0 SPACEBEE-167","1 55087U 23001CG  23104.63828008  .00019783  00000-0  99230-3 0  9990","2 55087  97.4842 165.3492 0014879 218.6916 141.3253 15.17268541 15457","2023-001CG","55087","6892.237","94.907","524.357","503.847","0"
"GENERATED VIA SPACETRACK.ORG API","18 SPCS","55087","SPACEBEE-167","PAYLOAD","U","23001CG","2023-04-15 05:33:49","551264","15.17297264","0.0014875","97.4846","165.9359","216.5562","143.4657","0","999","1554","0.0010996","0.00021954","0","3887974","0 SPACEBEE-167","1 55087U 23001CG  23105.23182351  .00021954  00000-0  10996-2 0  9995","2 55087  97.4846 165.9359 0014875 216.5562 143.4657 15.17297264 15544","2023-001CG","55087","6892.150","94.906","524.267","503.763","0"
"GENERATED VIA SPACETRACK.ORG API","18 SPCS","55087","SPACEBEE-167","PAYLOAD","U","23001CG","2023-04-15 21:23:28","640544","15.17328972","0.0014936","97.4841","166.5873","214.1394","145.888","0","999","1564","0.0011704","0.00023398","0","3888171","0 SPACEBEE-167","1 55087U 23001CG  23105.89130371  .00023398  00000-0  11704-2 0  9994","2 55087  97.4841 166.5873 0014936 214.1394 145.8880 15.17328972 15648","2023-001CG","55087","6892.054","94.904","524.213","503.625","0"
"GENERATED VIA SPACETRACK.ORG API","18 SPCS","55087","SPACEBEE-167","PAYLOAD","U","23001CG","2023-04-16 10:03:11","35872","15.17352822","0.0015029","97.4839","167.1084","212.3525","147.6788","0","999","1572","0.0010642","0.00021278","0","3888626","0 SPACEBEE-167","1 55087U 23001CG  23106.41887773  .00021278  00000-0  10642-2 0  9993","2 55087  97.4839 167.1084 0015029 212.3525 147.6788 15.17352822 15723","2023-001CG","55087","6891.982","94.902","524.205","503.489","0"
"GENERATED VIA SPACETRACK.ORG API","18 SPCS","55087","SPACEBEE-167","PAYLOAD","U","23001CG","2023-04-16 17:57:59","681952","15.17369533","0.0015","97.4835","167.4342","210.9783","149.0567","0","999","1577","0.0011192","0.00022395","0","3888799","0 SPACEBEE-167","1 55087U 23001CG  23106.74860743  .00022395  00000-0  11192-2 0  9999","2 55087  97.4835 167.4342 0015000 210.9783 149.0567 15.17369533 15771","2023-001CG","55087","6891.931","94.901","524.134","503.458","0"
"GENERATED VIA SPACETRACK.ORG API","18 SPCS","55087","SPACEBEE-167","PAYLOAD","U","23001CG","2023-04-17 03:27:45","633888","15.17388101","0.0015017","97.4834","167.8252","209.8472","150.1906","0","999","1583","0.0011242","0.00022508","0","3888997","0 SPACEBEE-167","1 55087U 23001CG  23107.14427817  .00022508  00000-0  11242-2 0  9997","2 55087  97.4834 167.8252 0015017 209.8472 150.1906 15.17388101 15833","2023-001CG","55087","6891.875","94.900","524.090","503.390","0"
"GENERATED VIA SPACETRACK.ORG API","18 SPCS","55087","SPACEBEE-167","PAYLOAD","U","23001CG","2023-04-17 09:47:36","39264","15.17399836","0.0015102","97.4833","168.0856","208.9651","151.0746","0","999","1587","0.001123","0.00022492","0","3889215","0 SPACEBEE-167","1 55087U 23001CG  23107.40805601  .00022492  00000-0  11230-2 0  9996","2 55087  97.4833 168.0856 0015102 208.9651 151.0746 15.17399836 15872","2023-001CG","55087","6891.839","94.899","524.113","503.296","0"
"GENERATED VIA SPACETRACK.ORG API","18 SPCS","55087","SPACEBEE-167","PAYLOAD","U","23001CG","2023-04-17 17:42:23","829120","15.17415348","0.0015164","97.4832","168.4114","207.9832","152.0588","0","999","1592","0.0011597","0.00023243","0","3889391","0 SPACEBEE-167","1 55087U 23001CG  23107.73777580  .00023243  00000-0  11597-2 0  9997","2 55087  97.4832 168.4114 0015164 207.9832 152.0588 15.17415348 15928","2023-001CG","55087","6891.792","94.898","524.108","503.207","0"
"GENERATED VIA SPACETRACK.ORG API","18 SPCS","55087","SPACEBEE-167","PAYLOAD","U","23001CG","2023-04-18 09:31:58","590624","15.1744262","0.0015223","97.4829","169.0629","205.9423","154.1049","0","999","1602","0.0010827","0.00021708","0","3889684","0 SPACEBEE-167","1 55087U 23001CG  23108.39720591  .00021708  00000-0  10827-2 0  9999","2 55087  97.4829 169.0629 0015223 205.9423 154.1049 15.17442620 16022","2023-001CG","55087","6891.710","94.897","524.066","503.084","0"
"GENERATED VIA SPACETRACK.ORG API","18 SPCS","55087","SPACEBEE-167","PAYLOAD","U","23001CG","2023-04-18 09:31:58","590624","15.1744262","0.0015223","97.4829","169.0629","205.9423","154.1049","0","999","1602","0.0010827","0.00021708","0","3889817","0 SPACEBEE-167","1 55087U 23001CG  23108.39720591  .00021708  00000-0  10827-2 0  9999","2 55087  97.4829 169.0629 0015223 205.9423 154.1049 15.17442620 16022","2023-001CG","55087","6891.710","94.897","524.066","503.084","0"
"GENERATED VIA SPACETRACK.ORG API","18 SPCS","55087","SPACEBEE-167","PAYLOAD","U","23001CG","2023-04-18 17:26:45","583872","15.17457957","0.0015242","97.4827","169.3883","204.8427","155.2075","0","999","1607","0.0011288","0.00022648","0","3889987","0 SPACEBEE-167","1 55087U 23001CG  23108.72691648  .00022648  00000-0  11288-2 0  9992","2 55087  97.4827 169.3883 0015242 204.8427 155.2075 15.17457957 16073","2023-001CG","55087","6891.663","94.896","524.033","503.024","0"
"GENERATED VIA SPACETRACK.ORG API","18 SPCS","55087","SPACEBEE-167","PAYLOAD","U","23001CG","2023-04-19 09:16:18","701184","15.17489892","0.001526","97.4825","170.0398","202.5053","157.5513","0","999","1617","0.0012717","0.00025557","0","3890383","0 SPACEBEE-167","1 55087U 23001CG  23109.38632756  .00025557  00000-0  12717-2 0  9990","2 55087  97.4825 170.0398 0015260 202.5053 157.5513 15.17489892 16177","2023-001CG","55087","6891.567","94.894","523.948","502.915","0"
"GENERATED VIA SPACETRACK.ORG API","18 SPCS","55087","SPACEBEE-167","PAYLOAD","U","23001CG","2023-04-19 17:11:04","829568","15.17505816","0.0015273","97.4825","170.3656","201.2731","158.787","0","999","1622","0.0012632","0.00025397","0","3890520","0 SPACEBEE-167","1 55087U 23001CG  23109.71602812  .00025397  00000-0  12632-2 0  9995","2 55087  97.4825 170.3656 0015273 201.2731 158.7870 15.17505816 16220","2023-001CG","55087","6891.519","94.893","523.909","502.858","0"
"GENERATED VIA SPACETRACK.ORG API","18 SPCS","55087","SPACEBEE-167","PAYLOAD","U","23001CG","2023-04-20 02:40:47","751456","15.17525861","0.0015274","97.4823","170.7569","199.8866","160.1774","0","999","1628","0.001304","0.00026238","0","3890803","0 SPACEBEE-167","1 55087U 23001CG  23110.11166379  .00026238  00000-0  13040-2 0  9993","2 55087  97.4823 170.7569 0015274 199.8866 160.1774 15.17525861 16285","2023-001CG","55087","6891.458","94.891","523.849","502.797","0"
"GENERATED VIA SPACETRACK.ORG API","18 SPCS","55087","SPACEBEE-167","PAYLOAD","U","23001CG","2023-04-20 02:40:47","751456","15.17525861","0.0015274","97.4823","170.7569","199.8866","160.1774","0","999","1628","0.001304","0.00026238","0","3890827","0 SPACEBEE-167","1 55087U 23001CG  23110.11166379  .00026238  00000-0  13040-2 0  9993","2 55087  97.4823 170.7569 0015274 199.8866 160.1774 15.17525861 16285","2023-001CG","55087","6891.458","94.891","523.849","502.797","0"
"GENERATED VIA SPACETRACK.ORG API","18 SPCS","55087","SPACEBEE-167","PAYLOAD","U","23001CG","2023-04-20 15:20:24","465984","15.17543504","0.0015381","97.4822","171.278","198.012","162.057","0","999","1636","0.00093961","0.00018879","0","3891109","0 SPACEBEE-167","1 55087U 23001CG  23110.63917206  .00018879  00000-0  93961-3 0  9996","2 55087  97.4822 171.2780 0015381 198.0120 162.0570 15.17543504 16366","2023-001CG","55087","6891.404","94.890","523.869","502.670","0"
"GENERATED VIA SPACETRACK.ORG API","18 SPCS","55087","SPACEBEE-167","PAYLOAD","U","23001CG","2023-04-21 04:00:00","581760","15.17562057","0.0015364","97.4824","171.7998","195.9691","164.106","0","999","1644","0.0008894","0.00017873","0","3891318","0 SPACEBEE-167","1 55087U 23001CG  23111.16667340  .00017873  00000-0  88940-3 0  9990","2 55087  97.4824 171.7998 0015364 195.9691 164.1060 15.17562057 16444","2023-001CG","55087","6891.348","94.889","523.801","502.625","0"
"GENERATED VIA SPACETRACK.ORG API","18 SPCS","55087","SPACEBEE-167","PAYLOAD","U","23001CG","2023-04-21 10:19:48","404640","15.17571087","0.001545","97.4826","172.0603","195.2382","164.8389","0","999","1648","0.00087531","0.00017593","0","3891529","0 SPACEBEE-167","1 55087U 23001CG  23111.43042135  .00017593  00000-0  87531-3 0  9993","2 55087  97.4826 172.0603 0015450 195.2382 164.8389 15.17571087 16487","2023-001CG","55087","6891.321","94.888","523.833","502.539","0"
"GENERATED VIA SPACETRACK.ORG API","18 SPCS","55087","SPACEBEE-167","PAYLOAD","U","23001CG","2023-04-21 21:24:26","780832","15.17589094","0.0015444","97.4822","172.5167","193.4322","166.6502","0","999","1655","0.00099099","0.00019944","0","3891716","0 SPACEBEE-167","1 55087U 23001CG  23111.89197663  .00019944  00000-0  99099-3 0  9994","2 55087  97.4822 172.5167 0015444 193.4322 166.6502 15.17589094 16552","2023-001CG","55087","6891.266","94.887","523.774","502.489","0"
